{
  "type": "FeatureCollection",
  "features": [
    {
      "type": "Feature",
      "properties": {
        "norad_id": 66948,
        "name": "STARLINK-36116",
        "group": "last-30-days",
        "lat": -1.6706719521365567,
        "lon": 19.540117610961126,
        "alt_km": 324.57275162690075,
        "timestamp": "2025-12-18T14:52:06.783271+00:00",
        "meta_object_name": "STARLINK-36116",
        "meta_object_id": "2025-286Z",
        "meta_epoch": "2025-12-18T06:00:02.999808",
        "meta_mean_motion": 15.83693377,
        "meta_eccentricity": 8.684e-05,
        "meta_inclination": 53.1554,
        "meta_ra_of_asc_node": 22.6519,
        "meta_arg_of_pericenter": 87.5504,
        "meta_mean_anomaly": 323.4923,
        "meta_ephemeris_type": 0,
        "meta_classification_type": "U",
        "meta_norad_cat_id": 66948,
        "meta_element_set_no": 999,
        "meta_rev_at_epoch": 287,
        "meta_bstar": -0.0074888793,
        "meta_mean_motion_dot": -0.01491358,
        "meta_mean_motion_ddot": 0,
        "tle_line1": "1 66948U 25286Z   25352.25003472 -.01491358  00000+0 -74889-2 0  9996",
        "tle_line2": "2 66948  53.1554  22.6519 0000868  87.5504 323.4923 15.83693377  2879"
      },
      "geometry": {
        "type": "Point",
        "coordinates": [
          19.540117610961126,
          -1.6706719521365567
        ]
      }
    },
    {
      "type": "Feature",
      "properties": {
        "norad_id": 66949,
        "name": "STARLINK-36096",
        "group": "last-30-days",
        "lat": 1.6549779551999815,
        "lon": 22.026231700975586,
        "alt_km": 324.01745198099707,
        "timestamp": "2025-12-18T14:52:06.783281+00:00",
        "meta_object_name": "STARLINK-36096",
        "meta_object_id": "2025-286AA",
        "meta_epoch": "2025-12-18T06:00:02.999808",
        "meta_mean_motion": 15.83719641,
        "meta_eccentricity": 7.622e-05,
        "meta_inclination": 53.1554,
        "meta_ra_of_asc_node": 22.6434,
        "meta_arg_of_pericenter": 83.9159,
        "meta_mean_anomaly": 331.252,
        "meta_ephemeris_type": 0,
        "meta_classification_type": "U",
        "meta_norad_cat_id": 66949,
        "meta_element_set_no": 999,
        "meta_rev_at_epoch": 287,
        "meta_bstar": -0.0075283515,
        "meta_mean_motion_dot": -0.0149989,
        "meta_mean_motion_ddot": 0,
        "tle_line1": "1 66949U 25286AA  25352.25003472 -.01499890  00000+0 -75284-2 0  9996",
        "tle_line2": "2 66949  53.1554  22.6434 0000762  83.9159 331.2520 15.83719641  2878"
      },
      "geometry": {
        "type": "Point",
        "coordinates": [
          22.026231700975586,
          1.6549779551999815
        ]
      }
    },
    {
      "type": "Feature",
      "properties": {
        "norad_id": 66950,
        "name": "STARLINK-36111",
        "group": "last-30-days",
        "lat": 5.118669982851791,
        "lon": 24.627190477100456,
        "alt_km": 323.48998065371416,
        "timestamp": "2025-12-18T14:52:06.783291+00:00",
        "meta_object_name": "STARLINK-36111",
        "meta_object_id": "2025-286AB",
        "meta_epoch": "2025-12-18T06:00:02.999808",
        "meta_mean_motion": 15.83734567,
        "meta_eccentricity": 7.824e-05,
        "meta_inclination": 53.1555,
        "meta_ra_of_asc_node": 22.6344,
        "meta_arg_of_pericenter": 83.1373,
        "meta_mean_anomaly": 336.3518,
        "meta_ephemeris_type": 0,
        "meta_classification_type": "U",
        "meta_norad_cat_id": 66950,
        "meta_element_set_no": 999,
        "meta_rev_at_epoch": 287,
        "meta_bstar": -0.0076012162,
        "meta_mean_motion_dot": -0.01513649,
        "meta_mean_motion_ddot": 0,
        "tle_line1": "1 66950U 25286AB  25352.25003472 -.01513649  00000+0 -76012-2 0  9997",
        "tle_line2": "2 66950  53.1555  22.6344 0000782  83.1373 336.3518 15.83734567  2870"
      },
      "geometry": {
        "type": "Point",
        "coordinates": [
          24.627190477100456,
          5.118669982851791
        ]
      }
    },
    {
      "type": "Feature",
      "properties": {
        "norad_id": 66951,
        "name": "STARLINK-35999",
        "group": "last-30-days",
        "lat": 6.922845154619388,
        "lon": 25.99479773103687,
        "alt_km": 323.1985970036749,
        "timestamp": "2025-12-18T14:52:06.783303+00:00",
        "meta_object_name": "STARLINK-35999",
        "meta_object_id": "2025-286AC",
        "meta_epoch": "2025-12-18T06:00:02.999808",
        "meta_mean_motion": 15.83738202,
        "meta_eccentricity": 8.34e-05,
        "meta_inclination": 53.1553,
        "meta_ra_of_asc_node": 22.6296,
        "meta_arg_of_pericenter": 81.0946,
        "meta_mean_anomaly": 340.6562,
        "meta_ephemeris_type": 0,
        "meta_classification_type": "U",
        "meta_norad_cat_id": 66951,
        "meta_element_set_no": 999,
        "meta_rev_at_epoch": 287,
        "meta_bstar": -0.0076454114,
        "meta_mean_motion_dot": -0.01521665,
        "meta_mean_motion_ddot": 0,
        "tle_line1": "1 66951U 25286AC  25352.25003472 -.01521665  00000+0 -76454-2 0  9995",
        "tle_line2": "2 66951  53.1553  22.6296 0000834  81.0946 340.6562 15.83738202  2873"
      },
      "geometry": {
        "type": "Point",
        "coordinates": [
          25.99479773103687,
          6.922845154619388
        ]
      }
    },
    {
      "type": "Feature",
      "properties": {
        "norad_id": 66952,
        "name": "STARLINK-36122",
        "group": "last-30-days",
        "lat": 3.4123958686704596,
        "lon": 23.342981308715334,
        "alt_km": 323.7500518056031,
        "timestamp": "2025-12-18T14:52:06.783313+00:00",
        "meta_object_name": "STARLINK-36122",
        "meta_object_id": "2025-286AD",
        "meta_epoch": "2025-12-18T06:00:02.999808",
        "meta_mean_motion": 15.83724839,
        "meta_eccentricity": 7.962e-05,
        "meta_inclination": 53.1556,
        "meta_ra_of_asc_node": 22.6389,
        "meta_arg_of_pericenter": 82.1709,
        "meta_mean_anomaly": 335.1931,
        "meta_ephemeris_type": 0,
        "meta_classification_type": "U",
        "meta_norad_cat_id": 66952,
        "meta_element_set_no": 999,
        "meta_rev_at_epoch": 287,
        "meta_bstar": -0.007577749,
        "meta_mean_motion_dot": -0.01508919,
        "meta_mean_motion_ddot": 0,
        "tle_line1": "1 66952U 25286AD  25352.25003472 -.01508919  00000+0 -75777-2 0  9990",
        "tle_line2": "2 66952  53.1556  22.6389 0000796  82.1709 335.1931 15.83724839  2876"
      },
      "geometry": {
        "type": "Point",
        "coordinates": [
          23.342981308715334,
          3.4123958686704596
        ]
      }
    },
    {
      "type": "Feature",
      "properties": {
        "norad_id": 66953,
        "name": "HULIANWANG DIGUI-114",
        "group": "last-30-days",
        "lat": -14.493193490357,
        "lon": -16.895728500066426,
        "alt_km": 1014.9425317329069,
        "timestamp": "2025-12-18T14:52:06.783324+00:00",
        "meta_object_name": "HULIANWANG DIGUI-114",
        "meta_object_id": "2025-287A",
        "meta_epoch": "2025-12-15T20:15:59.937408",
        "meta_mean_motion": 13.68689195,
        "meta_eccentricity": 0.00087999,
        "meta_inclination": 86.496,
        "meta_ra_of_asc_node": 345.0232,
        "meta_arg_of_pericenter": 195.8466,
        "meta_mean_anomaly": 164.2419,
        "meta_ephemeris_type": 0,
        "meta_classification_type": "U",
        "meta_norad_cat_id": 66953,
        "meta_element_set_no": 999,
        "meta_rev_at_epoch": 95,
        "meta_bstar": 2.5636052e-05,
        "meta_mean_motion_dot": 3.9e-07,
        "meta_mean_motion_ddot": 0,
        "tle_line1": "1 66953U 25287A   25349.84444372  .00000039  00000+0  25636-4 0  9999",
        "tle_line2": "2 66953  86.4960 345.0232 0008799 195.8466 164.2419 13.68689195   952"
      },
      "geometry": {
        "type": "Point",
        "coordinates": [
          -16.895728500066426,
          -14.493193490357
        ]
      }
    },
    {
      "type": "Feature",
      "properties": {
        "norad_id": 66954,
        "name": "HULIANWANG DIGUI-115",
        "group": "last-30-days",
        "lat": -10.966327127165904,
        "lon": -16.664984518537683,
        "alt_km": 1014.5297605618089,
        "timestamp": "2025-12-18T14:52:06.783336+00:00",
        "meta_object_name": "HULIANWANG DIGUI-115",
        "meta_object_id": "2025-287B",
        "meta_epoch": "2025-12-17T17:52:09.139872",
        "meta_mean_motion": 13.68792369,
        "meta_eccentricity": 0.00090008,
        "meta_inclination": 86.4975,
        "meta_ra_of_asc_node": 344.3338,
        "meta_arg_of_pericenter": 188.9372,
        "meta_mean_anomaly": 171.1628,
        "meta_ephemeris_type": 0,
        "meta_classification_type": "U",
        "meta_norad_cat_id": 66954,
        "meta_element_set_no": 999,
        "meta_rev_at_epoch": 121,
        "meta_bstar": 1.5683947e-05,
        "meta_mean_motion_dot": 3e-07,
        "meta_mean_motion_ddot": 0,
        "tle_line1": "1 66954U 25287B   25351.74455023  .00000030  00000+0  15684-4 0  9990",
        "tle_line2": "2 66954  86.4975 344.3338 0009000 188.9372 171.1628 13.68792369  1210"
      },
      "geometry": {
        "type": "Point",
        "coordinates": [
          -16.664984518537683,
          -10.966327127165904
        ]
      }
    }
  ]
}